OBJECT_NAME,OBJECT_ID,EPOCH,MEAN_MOTION,ECCENTRICITY,INCLINATION,RA_OF_ASC_NODE,ARG_OF_PERICENTER,MEAN_ANOMALY,EPHEMERIS_TYPE,CLASSIFICATION_TYPE,NORAD_CAT_ID,ELEMENT_SET_NO,REV_AT_EPOCH,BSTAR,MEAN_MOTION_DOT,MEAN_MOTION_DDOT
STARLINK-30398,2023-138H,2026-06-14T23:15:22.349088,15.27589342,.0000793,43.0044,44.9998,208.2921,151.7887,0,U,57815,999,15351,-.66706E-4,-.2098E-4,0
STARLINK-30386,2023-138J,2026-06-14T09:13:30.273888,15.27575210,.00011723,43.0024,48.3524,263.8299,96.2419,0,U,57816,999,15334,.3029983E-5,-.179E-5,0
STARLINK-30391,2023-138K,2026-06-14T09:19:02.944128,15.27629032,.00031836,43.0052,48.3764,267.7460,92.3028,0,U,57817,999,15352,.66549662E-3,.18124E-3,0
STARLINK-30401,2023-138L,2026-06-14T09:22:40.350720,15.27610070,.00023393,43.0096,48.3867,285.3375,74.7219,0,U,57818,999,15342,-.43339998E-3,-.12181E-3,0
STARLINK-30390,2023-138M,2026-06-14T09:28:18.306048,15.27576980,.00015129,43.0061,48.4251,259.7169,100.3513,0,U,57819,999,15346,.5726675E-5,-.105E-5,0
STARLINK-30409,2023-138N,2026-06-13T23:02:18.369312,15.27574915,.0001135,43.0061,50.3090,262.9370,97.1352,0,U,57820,999,15340,.12923E-4,.93E-6,0
STARLINK-30415,2023-138P,2026-06-14T22:18:13.114080,15.27566795,.000133,43.0030,45.5558,268.1954,91.8745,0,U,57821,999,15360,-.85887E-4,-.2624E-4,0
STARLINK-30407,2023-138R,2026-06-15T02:18:33.175584,15.27587122,.00017227,43.0023,298.6810,268.7592,91.3062,0,U,57823,999,15486,.36132357E-4,.732E-5,0
STARLINK-30408,2023-138S,2026-06-14T22:29:06.278208,15.27577556,.0001418,43.0002,44.7543,256.7954,103.2739,0,U,57824,999,15360,.20996E-4,.316E-5,0
STARLINK-30377,2023-138T,2026-06-14T22:27:15.370848,15.27568147,.0001241,42.9976,44.7431,247.6435,112.4285,0,U,57825,999,15350,-.59026E-4,-.1885E-4,0
STARLINK-30422,2023-138U,2026-06-14T23:00:33.774336,15.27579045,.000052,43.0127,44.9172,261.4915,98.5878,0,U,57826,999,15360,.43966E-4,.948E-5,0
STARLINK-30402,2023-138V,2026-06-14T22:45:45.503712,15.27576724,.0000638,43.0047,44.8429,262.1481,97.9298,0,U,57827,999,15360,.46738E-4,.1024E-4,0
STARLINK-30411,2023-138W,2026-06-13T23:07:51.233088,15.27577553,.0001215,43.0046,50.3303,258.8773,101.1942,0,U,57828,999,15339,.14622E-4,.14E-5,0
STARLINK-30418,2023-138X,2026-06-13T23:00:27.486144,15.27575305,.0001824,43.0015,50.3104,267.0776,92.9866,0,U,57829,999,15329,.46512E-5,-.134E-5,0
STARLINK-30285,2023-141A,2026-06-15T06:23:40.682976,15.31680041,.00013469,53.1597,190.4432,87.3891,272.7264,0,U,57840,999,15527,.1007875E-3,.2762E-4,0
STARLINK-30410,2023-141B,2026-06-15T06:37:04.805184,15.31701311,.00012317,53.1599,190.3182,100.5374,259.5766,0,U,57841,999,15527,.22943094E-4,.347E-5,0
STARLINK-30435,2023-141C,2026-06-15T07:03:58.201632,15.31707759,.00011598,53.1600,190.4615,99.8125,260.3007,0,U,57842,999,15527,.18386479E-4,.206E-5,0
STARLINK-30423,2023-141D,2026-06-15T06:50:30.894720,15.31703920,.00011193,53.1604,190.3605,93.3920,266.7209,0,U,57843,999,15527,.30058117E-4,.568E-5,0
STARLINK-30292,2023-141E,2026-06-15T06:30:24.147648,15.30188521,.00012877,53.1595,190.4863,81.9562,278.1585,0,U,57844,999,15527,.8136917E-5,-.118E-5,0
STARLINK-30416,2023-141H,2026-06-15T06:43:49.742112,15.31701014,.00013987,53.1610,190.5027,106.5935,253.5221,0,U,57847,999,15527,.24122869E-4,.383E-5,0
STARLINK-30426,2023-141J,2026-06-15T06:24:25.751808,15.30189791,.00012913,53.1601,190.9185,83.5070,276.6078,0,U,57848,999,15526,.12345042E-4,.6E-7,0
STARLINK-30430,2023-141K,2026-06-15T06:57:16.970400,15.31693457,.00011946,53.1602,190.6000,93.6603,266.4535,0,U,57849,999,15527,-.48752696E-4,-.1877E-4,0
STARLINK-30425,2023-141L,2026-06-15T06:29:01.347936,15.30165270,.00011155,53.1598,190.9460,88.1371,271.9758,0,U,57850,999,15526,-.81778478E-4,-.2777E-4,0
STARLINK-30405,2023-141M,2026-06-15T06:30:23.110848,15.31700085,.0001156,53.1598,190.4299,83.3276,276.7857,0,U,57851,999,15527,.14931556E-4,.98E-6,0
STARLINK-30431,2023-141N,2026-06-15T06:38:00.014784,15.30185494,.00012771,53.1596,190.5130,77.8559,282.2585,0,U,57852,999,15526,-.35218661E-4,-.1402E-4,0
STARLINK-30404,2023-141P,2026-06-15T06:31:53.857632,15.30210866,.00012328,53.1590,190.4841,83.3314,276.7827,0,U,57853,999,15527,.93197034E-4,.2403E-4,0
STARLINK-30412,2023-141Q,2026-06-15T06:47:06.685728,15.30193731,.00011537,53.1594,190.5509,83.4784,276.6348,0,U,57854,999,15527,.67134835E-4,.1629E-4,0
STARLINK-30392,2023-141R,2026-06-15T06:42:33.465600,15.30189481,.00012537,53.1597,190.5327,86.3767,273.7377,0,U,57855,999,15527,.2229444E-5,-.293E-5,0
STARLINK-30291,2023-141S,2026-06-15T06:10:13.707840,15.31699397,.0001247,53.1587,190.3919,86.3683,273.7461,0,U,57856,999,15527,.16678199E-4,.152E-5,0
STARLINK-30424,2023-141T,2026-06-15T07:17:21.054624,15.30184890,.00014067,53.1589,164.7147,96.2922,263.8239,0,U,57857,999,15563,-.42118601E-4,-.1606E-4,0
STARLINK-30290,2023-141U,2026-06-15T06:56:13.765344,15.30195911,.00011138,53.1600,190.5910,92.7552,267.3576,0,U,57858,999,15527,.18965683E-4,.203E-5,0
STARLINK-30414,2023-141V,2026-06-15T06:51:40.488192,15.30188181,.00011772,53.1592,190.5676,80.0380,280.0753,0,U,57859,999,15527,.18450638E-4,.187E-5,0
STARLINK-30272,2023-141W,2026-06-15T06:16:57.180288,15.31698716,.00012276,53.1595,190.4185,89.2510,270.8632,0,U,57860,999,15527,.9983703E-5,-.55E-6,0
STARLINK-30432,2023-144A,2026-06-15T01:54:10.140192,15.27582460,.00015478,43.0082,95.0587,273.4612,86.6063,0,U,57864,999,15249,.32853413E-4,.642E-5,0
STARLINK-30427,2023-144B,2026-06-15T01:59:43.468800,15.27578439,.0001275,43.0090,95.0783,272.1791,87.8915,0,U,57865,999,15249,.10570765E-4,.29E-6,0
STARLINK-30393,2023-144C,2026-06-15T01:43:04.356480,15.27589354,.00018442,43.0080,94.9944,282.2580,77.8065,0,U,57866,999,15249,.92510141E-4,.2285E-4,0
STARLINK-30439,2023-144D,2026-06-15T02:05:16.824192,15.27586465,.00008364,43.0069,95.1113,249.5220,110.5542,0,U,57867,999,15254,.59789738E-3,.1623E-3,0
STARLINK-30442,2023-144E,2026-06-15T02:10:46.925760,15.27597346,.00003142,42.9936,95.0969,193.5037,166.5806,0,U,57868,999,15249,.11148955E-3,.2809E-4,0
STARLINK-30441,2023-144F,2026-06-15T01:48:36.833184,15.27576878,.00013795,43.0026,94.9778,265.9566,94.1128,0,U,57869,999,15249,.19937312E-4,.286E-5,0
STARLINK-30460,2023-144G,2026-06-15T02:14:31.798176,15.27587679,.00010691,43.0024,95.1574,252.7513,107.3221,0,U,57870,999,15254,.79208345E-4,.1919E-4,0
STARLINK-30444,2023-144H,2026-06-15T02:25:37.920576,15.27595108,.00001795,43.0119,95.2146,237.9981,122.0853,0,U,57871,999,15225,.75147723E-3,.20484E-3,0
STARLINK-30446,2023-144J,2026-06-14T11:08:53.533536,15.27582982,.00018377,43.0026,84.5425,275.7731,84.2911,0,U,57872,999,15233,-.22609849E-3,-.6479E-4,0
STARLINK-30445,2023-144K,2026-06-15T02:20:05.856000,15.27569562,.00009516,42.9976,95.1859,281.7130,78.3615,0,U,57873,999,15249,-.30007861E-4,-.1087E-4,0
STARLINK-30447,2023-144L,2026-06-14T11:10:41.141280,15.27570773,.00022089,43.0096,72.9165,269.0311,91.0288,0,U,57874,999,15273,.11856619E-4,.64E-6,0
STARLINK-30434,2023-144M,2026-06-15T02:36:43.869312,15.27578743,.00002789,43.0138,95.2723,252.7392,107.3429,0,U,57875,999,15254,-.10673613E-4,-.556E-5,0
STARLINK-30429,2023-144N,2026-06-15T02:42:16.775424,15.27581896,.00003111,43.0004,95.2991,280.2035,79.8782,0,U,57876,999,15253,.12534274E-3,.3189E-4,0
STARLINK-30284,2023-144P,2026-06-14T10:17:15.065376,15.27576446,.00017227,43.0109,62.2301,260.6185,99.4472,0,U,57877,999,15285,.531666E-6,-.248E-5,0
STARLINK-30433,2023-144Q,2026-06-13T13:26:21.509952,15.27592769,.0003101,43.0118,103.4302,283.3763,76.6743,0,U,57878,999,15230,.93011E-4,.2298E-4,0
STARLINK-30358,2023-144R,2026-06-15T01:37:30.779040,15.27579925,.00018963,43.0087,94.9645,270.4685,89.5949,0,U,57879,999,15253,.289512E-4,.534E-5,0
STARLINK-30436,2023-144S,2026-06-14T02:14:25.151424,15.27580707,.00021581,43.0069,100.5487,276.0788,83.9818,0,U,57880,999,15238,.29919234E-4,.561E-5,0
STARLINK-30339,2023-144U,2026-06-14T12:47:49.522848,15.27572628,.00022994,43.0147,98.6840,273.0598,86.9991,0,U,57882,999,15244,-.6140244E-5,-.432E-5,0
STARLINK-30282,2023-144V,2026-06-13T13:22:38.517600,15.27590815,.0001418,43.0055,103.4101,266.3221,93.7468,0,U,57883,999,15230,.64818E-4,.1522E-4,0
STARLINK-30340,2023-144W,2026-06-15T01:39:22.730976,15.27581766,.00013371,43.0072,94.9629,260.1550,99.9151,0,U,57884,999,15253,.57208939E-4,.1312E-4,0
STARLINK-30279,2023-144X,2026-06-14T02:01:28.283232,15.27580305,.00010775,42.9876,100.4718,159.8643,200.2251,0,U,57885,999,15232,.3573621E-4,.722E-5,0
STARLINK-30465,2023-146A,2026-06-15T03:45:15.423264,15.27578450,.00017547,43.0105,123.6759,280.1961,79.8693,0,U,57891,999,15196,.39932471E-4,.836E-5,0
STARLINK-30470,2023-146B,2026-06-14T14:51:41.076288,15.27556904,.0001389,43.0013,126.5191,280.4579,79.6116,0,U,57892,999,15188,-.62472E-4,-.198E-4,0
STARLINK-30473,2023-146C,2026-06-15T04:13:00.213024,15.27566305,.00006233,42.9961,123.7495,252.7775,107.3009,0,U,57893,999,15196,.10452961E-4,.26E-6,0
STARLINK-30443,2023-146D,2026-06-15T03:47:07.111680,15.27569748,.00014282,43.0065,123.6784,274.3789,85.6900,0,U,57894,999,15196,-.15866246E-4,-.699E-5,0
STARLINK-30467,2023-146E,2026-06-15T03:30:27.016128,15.27577464,.0001408,43.0032,123.5929,266.4366,93.6324,0,U,57895,999,15195,.39064861E-4,.813E-5,0
STARLINK-30469,2023-146F,2026-06-15T03:52:39.199584,15.27579986,.00011377,43.0043,123.7051,263.4877,96.5845,0,U,57896,999,15196,.24597731E-4,.415E-5,0
STARLINK-30474,2023-146G,2026-06-15T03:56:21.848928,15.27575759,.00011324,43.0037,123.7266,263.1973,96.8750,0,U,57897,999,15196,.4364792E-5,-.142E-5,0
STARLINK-30479,2023-146H,2026-06-14T04:29:33.349056,15.27577304,.00012001,42.9986,129.2895,264.6642,95.4073,0,U,57898,999,15181,.30925595E-4,.589E-5,0
STARLINK-30481,2023-146J,2026-06-15T04:07:28.600320,15.27582046,.00011628,43.0017,123.7806,268.0685,92.0033,0,U,57899,999,15196,.10035738E-3,.2501E-4,0
STARLINK-30457,2023-146K,2026-06-15T04:33:21.659328,15.27574882,.0001163,43.0024,123.9088,265.7339,94.3379,0,U,57900,999,15090,.370985E-5,-.16E-5,0
